[{"OBJECT_NAME":"TIANHUI 4B","OBJECT_ID":"2021-134B","EPOCH":"2026-03-09T23:41:45.383712","MEAN_MOTION":15.45143214,"ECCENTRICITY":0.001131,"INCLINATION":88.9796,"RA_OF_ASC_NODE":336.7972,"ARG_OF_PERICENTER":100.8568,"MEAN_ANOMALY":259.3964,"EPHEMERIS_TYPE":0,"CLASSIFICATION_TYPE":"U","NORAD_CAT_ID":50573,"ELEMENT_SET_NO":999,"REV_AT_EPOCH":23451,"BSTAR":0.00022134909,"MEAN_MOTION_DOT":0.00010536,"MEAN_MOTION_DDOT":0},{"OBJECT_NAME":"STARLINK-34379","OBJECT_ID":"2025-123M","EPOCH":"2026-03-09T16:18:28.587456","MEAN_MOTION":15.42688332,"ECCENTRICITY":0.00021053,"INCLINATION":70.0035,"RA_OF_ASC_NODE":164.9522,"ARG_OF_PERICENTER":264.6455,"MEAN_ANOMALY":95.4487,"EPHEMERIS_TYPE":0,"CLASSIFICATION_TYPE":"U","NORAD_CAT_ID":64302,"ELEMENT_SET_NO":999,"REV_AT_EPOCH":4235,"BSTAR":0.0010993501,"MEAN_MOTION_DOT":0.00048253,"MEAN_MOTION_DDOT":0}]
